{
    "links": {
        "self": "http://www.neowsapp.com/rest/v1/neo/3550133?api_key=iIulBulltgU6a56xZRHN4H3l9WmuAYTsLGpBGhQ2"
    },
    "id": "3550133",
    "neo_reference_id": "3550133",
    "name": "(2010 VJ)",
    "designation": "2010 VJ",
    "nasa_jpl_url": "http://ssd.jpl.nasa.gov/sbdb.cgi?sstr=3550133",
    "absolute_magnitude_h": 22.5,
    "estimated_diameter": {
        "kilometers": {
            "estimated_diameter_min": 0.0840533402,
            "estimated_diameter_max": 0.1879489824
        },
        "meters": {
            "estimated_diameter_min": 84.0533402073,
            "estimated_diameter_max": 187.9489824394
        },
        "miles": {
            "estimated_diameter_min": 0.0522283081,
            "estimated_diameter_max": 0.1167860472
        },
        "feet": {
            "estimated_diameter_min": 275.7655606856,
            "estimated_diameter_max": 616.6305395464
        }
    },
    "is_potentially_hazardous_asteroid": false,
    "close_approach_data": [
        {
            "close_approach_date": "2006-10-09",
            "close_approach_date_full": "2006-Oct-09 14:41",
            "epoch_date_close_approach": 1160404860000,
            "relative_velocity": {
                "kilometers_per_second": "7.2423551467",
                "kilometers_per_hour": "26072.4785281297",
                "miles_per_hour": "16200.4242276593"
            },
            "miss_distance": {
                "astronomical": "0.3633577778",
                "lunar": "141.3461755642",
                "kilometers": "54357549.606813286",
                "miles": "33776215.1017679068"
            },
            "orbiting_body": "Earth"
        },
        {
            "close_approach_date": "2010-10-14",
            "close_approach_date_full": "2010-Oct-14 03:21",
            "epoch_date_close_approach": 1287026460000,
            "relative_velocity": {
                "kilometers_per_second": "5.1967900681",
                "kilometers_per_hour": "18708.444245314",
                "miles_per_hour": "11624.6997034286"
            },
            "miss_distance": {
                "astronomical": "0.2436994659",
                "lunar": "94.7990922351",
                "kilometers": "36456921.018777633",
                "miles": "22653280.2745040154"
            },
            "orbiting_body": "Earth"
        },
        {
            "close_approach_date": "2014-10-25",
            "close_approach_date_full": "2014-Oct-25 18:43",
            "epoch_date_close_approach": 1414262580000,
            "relative_velocity": {
                "kilometers_per_second": "5.1902072239",
                "kilometers_per_hour": "18684.7460058659",
                "miles_per_hour": "11609.9745390337"
            },
            "miss_distance": {
                "astronomical": "0.4228862502",
                "lunar": "164.5027513278",
                "kilometers": "63262882.282207074",
                "miles": "39309732.2336586612"
            },
            "orbiting_body": "Earth"
        }
    ],
    "orbital_data": {
        "orbit_id": "11",
        "orbit_determination_date": "2017-04-06 08:56:00",
        "first_observation_date": "2010-11-01",
        "last_observation_date": "2010-12-02",
        "data_arc_in_days": 31,
        "observations_used": 41,
        "orbit_uncertainty": "6",
        "minimum_orbit_intersection": ".229948",
        "jupiter_tisserand_invariant": "3.261",
        "epoch_osculation": "2459000.5",
        "eccentricity": ".5141567976086926",
        "semi_major_axis": "2.49439583080532",
        "inclination": "8.444721972507551",
        "ascending_node_longitude": "49.141059174144",
        "orbital_period": "1438.952588609694",
        "perihelion_distance": "1.211885258469983",
        "perihelion_argument": "326.5076463784138",
        "aphelion_distance": "3.776906403140659",
        "perihelion_time": "2458365.355588928975",
        "mean_anomaly": "158.9016829293112",
        "mean_motion": ".2501819746179612",
        "equinox": "J2000",
        "orbit_class": {
            "orbit_class_type": "AMO",
            "orbit_class_description": "Near-Earth asteroid orbits similar to that of 1221 Amor",
            "orbit_class_range": "1.017 AU < q (perihelion) < 1.3 AU"
        }
    },
    "is_sentry_object": false
}